GSAT0201 (PRN E18)      
1 40128U 14050A   23064.08427771 -.00000068  00000+0  00000+0 0  9999
2 40128  50.0905 321.8893 1612125 133.4293 241.1717  1.85519494 56058
GSAT0202 (PRN E14)      
1 40129U 14050B   23067.03930490 -.00000059  00000+0  00000+0 0  9995
2 40129  50.1096 320.8386 1609634 134.3456 240.0312  1.85520038 58247
IRNSS-1C (I03)          
1 40269U 14061A   23066.93609428 -.00000159  00000+0  00000+0 0  9995
2 40269   3.5419 118.5513 0017394   3.4198 103.3752  1.00274065 30827
GPS BIIF-8  (PRN 03)    
1 40294U 14068A   23065.34162958  .00000011  00000+0  00000+0 0  9992
2 40294  56.0253  77.6071 0043240  56.0367 304.4274  2.00559586 61168
COSMOS 2501 (702K)      
1 40315U 14075A   23066.82605553  .00000044  00000+0  00000+0 0  9997
2 40315  63.6541 231.9575 0017268 203.8557 213.6821  2.13101370 64344
GPS BIIF-9  (PRN 26)    
1 40534U 15013A   23066.47202177  .00000030  00000+0  00000+0 0  9994
2 40534  53.5527 253.7886 0077832  24.6335 335.7355  2.00565768 57804
GSAT0203 (PRN E26)      
1 40544U 15017A   23065.23500599 -.00000084  00000+0  00000+0 0  9991
2 40544  56.8713  14.2268 0004169 285.6051  74.3317  1.70475820 48763
GSAT0204 (PRN E22)      
1 40545U 15017B   23064.90174133 -.00000085  00000+0  00000+0 0  9997
2 40545  56.8772  14.2495 0003385 276.1693  83.7747  1.70475637 49428
IRNSS-1D (I04)          
1 40547U 15018A   23066.43989956 -.00000271  00000+0  00000+0 0  9994
2 40547  28.4374 260.7025 0020612 176.1800 357.9909  1.00267072 28980
BEIDOU-3S IGSO-1S (C31) 
1 40549U 15019A   23066.71907777 -.00000134  00000+0  00000+0 0  9997
2 40549  51.4180 309.6822 0036091 192.4800  14.9721  1.00297146 29078
GPS BIIF-10 (PRN 08)    
1 40730U 15033A   23066.13334160 -.00000039  00000+0  00000+0 0  9995
2 40730  54.9950 316.0725 0083265  11.5921 348.6605  2.00564712 55969
BEIDOU-3S M2S (C57)     
1 40748U 15037A   23067.17056503 -.00000080  00000+0  00000+0 0  9991
2 40748  55.7589 342.8527 0005372   5.1112 209.5222  1.86233207 51822
BEIDOU-3S M1S (C58)     
1 40749U 15037B   23066.18589591 -.00000084  00000+0  00000+0 0  9994
2 40749  55.7584 342.8704 0006654 334.3361  74.1187  1.86233197 51804
GSAT0205 (PRN E24)      
1 40889U 15045A   23062.91019052  .00000050  00000+0  00000+0 0  9997
2 40889  55.4651 254.7912 0006277  34.7130 325.3422  1.70473536 46532
GSAT0206 (PRN E30)      
1 40890U 15045B   23065.47721583  .00000048  00000+0  00000+0 0  9999
2 40890  55.4629 254.7159 0004270  33.7498 326.2789  1.70473606 46601
BEIDOU-3S IGSO-2S (C56) 
1 40938U 15053A   23067.50021259 -.00000097  00000+0  00000+0 0  9995
2 40938  51.0888 272.8231 0043907 192.3870 337.2152  1.00278816 27346
GPS BIIF-11 (PRN 10)    
1 41019U 15062A   23067.18476069  .00000011  00000+0  00000+0 0  9998
2 41019  56.0128  77.3819 0086199 221.6272 137.7599  2.00562427 53826
GSAT-15 (GAGAN/PRN 139) 
1 41028U 15065A   23067.04216019 -.00000256  00000+0  00000+0 0  9995
2 41028   0.0918 271.7680 0000706  93.7119 268.6748  1.00271151 26859
GSAT0209 (PRN E09)      
1 41174U 15079A   23065.06298439  .00000009  00000+0  00000+0 0  9993
2 41174  55.2340 134.2090 0003762 304.5620  55.4751  1.70474959 44332
GSAT0208 (PRN E08)      
1 41175U 15079B   23065.86911035  .00000016  00000+0  00000+0 0  9994
2 41175  55.2329 134.1852 0003422 301.3159  58.7286  1.70474834 44768
IRNSS-1E (I05)          
1 41241U 16003A   23066.50262409 -.00000277  00000+0  00000+0 0  9992
2 41241  30.5695  80.5455 0019369 187.7753 189.3528  1.00277809 26070
GPS BIIF-12 (PRN 32)    
1 41328U 16007A   23067.27205628  .00000031  00000+0  00000+0 0  9994
2 41328  54.9660 137.0011 0068904 232.8131 126.6302  2.00558328 51874
COSMOS 2514 (751)       
1 41330U 16008A   23066.26214225 -.00000069  00000+0  00000+0 0  9991
2 41330  65.5467 353.8056 0008677 222.4029 137.5472  2.13102766 55091
IRNSS-1F (I06)          
1 41384U 16015A   23066.56748852  .00000160  00000+0  00000+0 0  9990
2 41384   2.5843 139.2520 0022551 188.1754  74.2873  1.00275021 25652
BEIDOU-2 IGSO-6 (C13)   
1 41434U 16021A   23066.40049274 -.00000126  00000+0  00000+0 0  9991
2 41434  58.4867  50.1161 0049004 226.0744 129.1683  1.00274470 25464
IRNSS-1G (I07)          
1 41469U 16027A   23067.57063328 -.00000332  00000+0  00000+0 0  9999
2 41469   2.4913 141.3111 0005250 279.5867  79.9977  1.00266799 25176
GSAT0211 (PRN E02)      
1 41549U 16030A   23065.40289524  .00000049  00000+0  00000+0 0  9994
2 41549  55.6103 254.6788 0004091   8.6567 351.3524  1.70473636 42232
GSAT0210 (PRN E01)      
1 41550U 16030B   23066.28098008  .00000048  00000+0  00000+0 0  9997
2 41550  55.6084 254.6559 0001954 349.3340  10.6586  1.70473818 42243
COSMOS 2516 (753)       
1 41554U 16032A   23067.32028107  .00000047  00000+0  00000+0 0  9991
2 41554  63.8825 232.2904 0014135 211.8348 148.0527  2.13106435 52724
BEIDOU-2 G7 (C03)       
1 41586U 16037A   23067.54285478 -.00000351  00000+0  00000+0 0  9990
2 41586   1.4606  64.3610 0009702 344.1726  63.4162  1.00274062 24783
E 117 W B (WAAS/PRN 131)
1 41589U 16038B   23067.36196333 -.00000009  00000+0  00000+0 0  9995
2 41589   0.0141  44.8202 0000141  81.3726  52.8919  1.00271654 24701
GSAT0207 (PRN E07)      
1 41859U 16069A   23063.59720888 -.00000004  00000+0  00000+0 0  9993
2 41859  54.8938 134.3661 0006334 282.2426  77.7481  1.70474994 38934
GSAT0212 (PRN E03)      
1 41860U 16069B   23066.38445184  .00000019  00000+0  00000+0 0  9993
2 41860  54.8936 134.2862 0002796 306.2674  53.7873  1.70473601 39233
GSAT0213 (PRN E04)      
1 41861U 16069C   23065.57648279  .00000013  00000+0  00000+0 0  9998
2 41861  54.8957 134.3144 0004632 265.6522  94.3705  1.70473625 39086
GSAT0214 (PRN E05)      
1 41862U 16069D   23064.55044754  .00000004  00000+0  00000+0 0  9994
2 41862  54.8940 134.3371 0003914 267.3391  92.6845  1.70473734 39195
SES-15 (WAAS/PRN 133)   
1 42709U 17026A   23066.94735494  .00000061  00000+0  00000+0 0  9995
2 42709   0.0256  26.4645 0000448 315.4725  35.3328  1.00270249 22134
QZS-2 (PRN 194/184)     
1 42738U 17028A   23066.84842126 -.00000128  00000+0  00000+0 0  9994
2 42738  41.3367 260.4262 0746131 270.2463  80.9323  1.00264721 21133
QZS-3 (PRN 199/189)     
1 42917U 17048A   23067.57618786 -.00000345  00000+0  00000+0 0  9990
2 42917   0.0734 223.0842 0002370 132.1429 145.2080  1.00275530 20368
COSMOS 2522 (752)       
1 42939U 17055A   23065.60244868  .00000042  00000+0  00000+0 0  9993
2 42939  64.1160 232.8219 0005050 235.1922  99.2718  2.13101933 42430
QZS-4 (PRN 195/185)     
1 42965U 17062A   23065.68747368 -.00000312  00000+0  00000+0 0  9992
2 42965  40.6972 358.7532 0748734 269.7029 282.5101  1.00283509 19790
BEIDOU-3 M1 (C19)       
1 43001U 17069A   23067.27352184  .00000037  00000+0  00000+0 0  9999
2 43001  55.7173 102.8462 0011687 288.8097  77.3315  1.86231478 36315
BEIDOU-3 M2 (C20)       
1 43002U 17069B   23067.45579882  .00000037  00000+0  00000+0 0  9996
2 43002  55.7151 102.8757 0009232 307.5564 223.5137  1.86231216 36306
GSAT0215 (PRN E21)      
1 43055U 17079A   23066.21356527  .00000048  00000+0  00000+0 0  9999
2 43055  55.5853 254.4851 0001547   1.4275 358.5697  1.70474311 32562
GSAT0216 (PRN E25)      
1 43056U 17079B   23067.09218115  .00000048  00000+0  00000+0 0  9997
2 43056  55.5853 254.4607 0002444 320.5235  39.4504  1.70474410 32562
GSAT0217 (PRN E27)      
1 43057U 17079C   23063.79302245  .00000050  00000+0  00000+0 0  9992
2 43057  55.5856 254.5508 0002991 344.3848  15.6164  1.70474373 32520
GSAT0218 (PRN E31)      
1 43058U 17079D   23064.59961845  .00000049  00000+0  00000+0 0  9997
2 43058  55.5853 254.5259 0002657 309.6097  50.3730  1.70474391 32569
BEIDOU-3 M7 (C27)       
1 43107U 18003A   23066.64312164 -.00000084  00000+0  00000+0 0  9992
2 43107  55.2121 343.6658 0004729  46.2742 106.5317  1.86232765 35051
BEIDOU-3 M8 (C28)       
1 43108U 18003B   23066.67752683 -.00000084  00000+0  00000+0 0  9990
2 43108  55.2063 343.6579 0003454 280.5702 297.7075  1.86230793 35055
BEIDOU-3 M4 (C22)       
1 43207U 18018A   23064.64750463  .00000028  00000+0  00000+0 0  9992
2 43207  55.6762 103.0397 0005742 324.7385  35.3082  1.86231401 34400
BEIDOU-3 M3 (C21)       
1 43208U 18018B   23064.71409652  .00000028  00000+0  00000+0 0  9992
2 43208  55.6732 103.0412 0009003 297.2421  62.7506  1.86231510 34401
BEIDOU-3 M9 (C29)       
1 43245U 18029A   23066.88099906 -.00000080  00000+0  00000+0 0  9991
2 43245  55.1149 341.4120 0001571 332.9195 249.9979  1.86232440 33595
BEIDOU-3 M10 (C30)      
1 43246U 18029B   23066.91063184 -.00000080  00000+0  10000-3 0  9990
2 43246  55.1123 341.4407 0005245 358.3981 291.1310  1.86232651 33584
IRNSS-1I (I09)          
1 43286U 18035A   23065.63981708  .00000103  00000+0  00000+0 0  9990
2 43286  28.8389  93.1015 0019969 189.0591 167.4089  1.00277412 18052
COSMOS 2527 (756)       
1 43508U 18053A   23066.99978470  .00000056  00000+0  00000+0 0  9996
2 43508  65.0369 114.0011 0009593 236.7856 121.6140  2.13102484 36753
BEIDOU-2 IGSO-7 (C16)   
1 43539U 18057A   23065.99485169 -.00000154  00000+0  00000+0 0  9991
2 43539  55.1036 173.4239 0057126 228.4061 232.4892  1.00286127 17149
GSAT0221 (PRN E15)      
1 43564U 18060A   23064.49825481 -.00000086  00000+0  00000+0 0  9996
2 43564  57.2521  14.1288 0005067 298.2544  61.6765  1.70475650 28716
GSAT0222 (PRN E33)      
1 43565U 18060B   23063.54496845 -.00000089  00000+0  00000+0 0  9993
2 43565  57.2540  14.1552 0004923 306.0616  53.8745  1.70475623 28744
GSAT0219 (PRN E36)      
1 43566U 18060C   23065.52525461 -.00000083  00000+0  00000+0 0  9995
2 43566  57.2550  14.1040 0004584 307.8550  52.0865  1.70475643 28754
GSAT0220 (PRN E13)      
1 43567U 18060D   23063.98581115 -.00000088  00000+0  00000+0 0  9997
2 43567  57.2544  14.1460 0004701 303.1966  56.7401  1.70475728 28712
BEIDOU-3 M5 (C23)       
1 43581U 18062A   23066.43501833  .00000023  00000+0  00000+0 0  9995
2 43581  54.2120 223.0875 0001638 333.6934 208.7180  1.86231837 31327
